{
  "type": "FeatureCollection",
  "features": [
    {
      "type": "Feature",
      "properties": {
        "norad_id": 40010,
        "name": "KAZEOSAT 2",
        "group": "resource",
        "lat": -82.33119359717828,
        "lon": -56.96958510327188,
        "alt_km": 622.0109953992769,
        "timestamp": "2025-12-25T09:48:51.943318+00:00",
        "meta_object_name": "KAZEOSAT 2",
        "meta_object_id": "2014-033A",
        "meta_epoch": "2025-12-25T03:45:28.456704",
        "meta_mean_motion": 14.85188055,
        "meta_eccentricity": 0.0008674,
        "meta_inclination": 97.5495,
        "meta_ra_of_asc_node": 202.8301,
        "meta_arg_of_pericenter": 163.6895,
        "meta_mean_anomaly": 196.4602,
        "meta_ephemeris_type": 0,
        "meta_classification_type": "U",
        "meta_norad_cat_id": 40010,
        "meta_element_set_no": 999,
        "meta_rev_at_epoch": 62312,
        "meta_bstar": 7.9471e-05,
        "meta_mean_motion_dot": 6.31e-06,
        "meta_mean_motion_ddot": 0,
        "tle_line1": "1 40010U 14033A   25359.15657936  .00000631  00000+0  79471-4 0  9993",
        "tle_line2": "2 40010  97.5495 202.8301 0008674 163.6895 196.4602 14.85188055623122"
      },
      "geometry": {
        "type": "Point",
        "coordinates": [
          -56.96958510327188,
          -82.33119359717828
        ]
      }
    },
    {
      "type": "Feature",
      "properties": {
        "norad_id": 40011,
        "name": "HODOYOSHI-4",
        "group": "resource",
        "lat": 75.8191664959964,
        "lon": 39.28619255085675,
        "alt_km": 589.1682011009143,
        "timestamp": "2025-12-25T09:48:51.943329+00:00",
        "meta_object_name": "HODOYOSHI-4",
        "meta_object_id": "2014-033B",
        "meta_epoch": "2025-12-25T04:30:49.038048",
        "meta_mean_motion": 14.87521828,
        "meta_eccentricity": 0.0024117,
        "meta_inclination": 97.541,
        "meta_ra_of_asc_node": 187.4582,
        "meta_arg_of_pericenter": 159.1872,
        "meta_mean_anomaly": 201.0332,
        "meta_ephemeris_type": 0,
        "meta_classification_type": "U",
        "meta_norad_cat_id": 40011,
        "meta_element_set_no": 999,
        "meta_rev_at_epoch": 62293,
        "meta_bstar": 6.9863e-05,
        "meta_mean_motion_dot": 5.85e-06,
        "meta_mean_motion_ddot": 0,
        "tle_line1": "1 40011U 14033B   25359.18806757  .00000585  00000+0  69863-4 0  9996",
        "tle_line2": "2 40011  97.5410 187.4582 0024117 159.1872 201.0332 14.87521828622936"
      },
      "geometry": {
        "type": "Point",
        "coordinates": [
          39.28619255085675,
          75.8191664959964
        ]
      }
    },
    {
      "type": "Feature",
      "properties": {
        "norad_id": 40013,
        "name": "DEIMOS-2",
        "group": "resource",
        "lat": 29.7557259189081,
        "lon": 59.1718117755116,
        "alt_km": 586.4084100012278,
        "timestamp": "2025-12-25T09:48:51.943339+00:00",
        "meta_object_name": "DEIMOS-2",
        "meta_object_id": "2014-033D",
        "meta_epoch": "2025-12-25T04:19:12.482976",
        "meta_mean_motion": 14.93025754,
        "meta_eccentricity": 0.0001331,
        "meta_inclination": 97.6049,
        "meta_ra_of_asc_node": 234.57,
        "meta_arg_of_pericenter": 105.2916,
        "meta_mean_anomaly": 254.8451,
        "meta_ephemeris_type": 0,
        "meta_classification_type": "U",
        "meta_norad_cat_id": 40013,
        "meta_element_set_no": 999,
        "meta_rev_at_epoch": 61175,
        "meta_bstar": 0.00030984,
        "meta_mean_motion_dot": 3.168e-05,
        "meta_mean_motion_ddot": 0,
        "tle_line1": "1 40013U 14033D   25359.18000559  .00003168  00000+0  30984-3 0  9995",
        "tle_line2": "2 40013  97.6049 234.5700 0001331 105.2916 254.8451 14.93025754611757"
      },
      "geometry": {
        "type": "Point",
        "coordinates": [
          59.1718117755116,
          29.7557259189081
        ]
      }
    },
    {
      "type": "Feature",
      "properties": {
        "norad_id": 40015,
        "name": "HODOYOSHI-3",
        "group": "resource",
        "lat": -81.47474060331433,
        "lon": -78.57981508507761,
        "alt_km": 610.4190315392825,
        "timestamp": "2025-12-25T09:48:51.943348+00:00",
        "meta_object_name": "HODOYOSHI-3",
        "meta_object_id": "2014-033F",
        "meta_epoch": "2025-12-25T03:46:04.679904",
        "meta_mean_motion": 14.84847912,
        "meta_eccentricity": 0.0032528,
        "meta_inclination": 97.6207,
        "meta_ra_of_asc_node": 164.4527,
        "meta_arg_of_pericenter": 205.7647,
        "meta_mean_anomaly": 154.1949,
        "meta_ephemeris_type": 0,
        "meta_classification_type": "U",
        "meta_norad_cat_id": 40015,
        "meta_element_set_no": 999,
        "meta_rev_at_epoch": 62179,
        "meta_bstar": 0.0002011,
        "meta_mean_motion_dot": 1.672e-05,
        "meta_mean_motion_ddot": 0,
        "tle_line1": "1 40015U 14033F   25359.15699861  .00001672  00000+0  20110-3 0  9992",
        "tle_line2": "2 40015  97.6207 164.4527 0032528 205.7647 154.1949 14.84847912621799"
      },
      "geometry": {
        "type": "Point",
        "coordinates": [
          -78.57981508507761,
          -81.47474060331433
        ]
      }
    },
    {
      "type": "Feature",
      "properties": {
        "norad_id": 40053,
        "name": "SPOT 7",
        "group": "resource",
        "lat": -27.741400788126786,
        "lon": 65.48078395378201,
        "alt_km": 696.9252969068839,
        "timestamp": "2025-12-25T09:48:51.943359+00:00",
        "meta_object_name": "SPOT 7",
        "meta_object_id": "2014-034A",
        "meta_epoch": "2025-12-25T03:21:59.963904",
        "meta_mean_motion": 14.60748718,
        "meta_eccentricity": 0.000153,
        "meta_inclination": 98.0886,
        "meta_ra_of_asc_node": 60.929,
        "meta_arg_of_pericenter": 82.9011,
        "meta_mean_anomaly": 277.2364,
        "meta_ephemeris_type": 0,
        "meta_classification_type": "U",
        "meta_norad_cat_id": 40053,
        "meta_element_set_no": 999,
        "meta_rev_at_epoch": 61172,
        "meta_bstar": 0.00010572,
        "meta_mean_motion_dot": 4.7e-06,
        "meta_mean_motion_ddot": 0,
        "tle_line1": "1 40053U 14034A   25359.14027736  .00000470  00000+0  10572-3 0  9996",
        "tle_line2": "2 40053  98.0886  60.9290 0001530  82.9011 277.2364 14.60748718611723"
      },
      "geometry": {
        "type": "Point",
        "coordinates": [
          65.48078395378201,
          -27.741400788126786
        ]
      }
    },
    {
      "type": "Feature",
      "properties": {
        "norad_id": 40072,
        "name": "SKYSAT-B",
        "group": "resource",
        "lat": 38.571030830935115,
        "lon": -62.95171576503187,
        "alt_km": 602.0927782052104,
        "timestamp": "2025-12-25T09:48:51.943368+00:00",
        "meta_object_name": "SKYSAT-B",
        "meta_object_id": "2014-037D",
        "meta_epoch": "2025-12-25T03:10:51.972672",
        "meta_mean_motion": 14.87370343,
        "meta_eccentricity": 0.0006842,
        "meta_inclination": 98.3628,
        "meta_ra_of_asc_node": 303.4941,
        "meta_arg_of_pericenter": 115.6801,
        "meta_mean_anomaly": 244.5121,
        "meta_ephemeris_type": 0,
        "meta_classification_type": "U",
        "meta_norad_cat_id": 40072,
        "meta_element_set_no": 999,
        "meta_rev_at_epoch": 62008,
        "meta_bstar": 0.00020295,
        "meta_mean_motion_dot": 1.774e-05,
        "meta_mean_motion_ddot": 0,
        "tle_line1": "1 40072U 14037D   25359.13254598  .00001774  00000+0  20295-3 0  9998",
        "tle_line2": "2 40072  98.3628 303.4941 0006842 115.6801 244.5121 14.87370343620082"
      },
      "geometry": {
        "type": "Point",
        "coordinates": [
          -62.95171576503187,
          38.571030830935115
        ]
      }
    },
    {
      "type": "Feature",
      "properties": {
        "norad_id": 40115,
        "name": "WORLDVIEW-3 (WV-3)",
        "group": "resource",
        "lat": -3.19002141485717,
        "lon": -108.9076086672232,
        "alt_km": 617.2149393153068,
        "timestamp": "2025-12-25T09:48:51.943378+00:00",
        "meta_object_name": "WORLDVIEW-3 (WV-3)",
        "meta_object_id": "2014-048A",
        "meta_epoch": "2025-12-25T02:31:20.818848",
        "meta_mean_motion": 14.84675256,
        "meta_eccentricity": 0.000204,
        "meta_inclination": 97.8764,
        "meta_ra_of_asc_node": 71.2343,
        "meta_arg_of_pericenter": 129.3268,
        "meta_mean_anomaly": 230.8128,
        "meta_ephemeris_type": 0,
        "meta_classification_type": "U",
        "meta_norad_cat_id": 40115,
        "meta_element_set_no": 999,
        "meta_rev_at_epoch": 61607,
        "meta_bstar": 0.00013385,
        "meta_mean_motion_dot": 1.079e-05,
        "meta_mean_motion_ddot": 0,
        "tle_line1": "1 40115U 14048A   25359.10510207  .00001079  00000+0  13385-3 0  9997",
        "tle_line2": "2 40115  97.8764  71.2343 0002040 129.3268 230.8128 14.84675256616073"
      },
      "geometry": {
        "type": "Point",
        "coordinates": [
          -108.9076086672232,
          -3.19002141485717
        ]
      }
    }
  ]
}